OBJECT_NAME,OBJECT_ID,EPOCH,MEAN_MOTION,ECCENTRICITY,INCLINATION,RA_OF_ASC_NODE,ARG_OF_PERICENTER,MEAN_ANOMALY,EPHEMERIS_TYPE,CLASSIFICATION_TYPE,NORAD_CAT_ID,ELEMENT_SET_NO,REV_AT_EPOCH,BSTAR,MEAN_MOTION_DOT,MEAN_MOTION_DDOT
IONOSFERA-M 4,2025-155B,2026-06-26T18:47:41.720928,14.21490332,.0001382,98.6027,139.3640,116.0625,244.0695,0,U,64877,999,4776,.37672E-4,.4E-6,0
MICROCARB,2025-156A,2026-06-26T17:33:33.562944,14.72532534,.0015447,97.9921,254.7043,235.6589,124.3157,0,U,64899,999,4937,.85331E-4,.493E-5,0
CO3D 3,2025-156B,2026-06-26T17:33:59.373216,15.20200040,.000177,97.4334,256.2875,118.5521,241.5892,0,U,64900,999,5098,.19039E-3,.4056E-4,0
CO3D 4,2025-156C,2026-06-26T17:34:12.494784,15.20201567,.0000468,97.4336,256.2876,186.4432,173.6797,0,U,64901,999,5098,.19416E-3,.4138E-4,0
CO3D 2,2025-156D,2026-06-26T16:46:11.453088,15.20206650,.0001508,97.4335,256.1536,100.6482,259.4923,0,U,64902,999,5097,.22228E-3,.4748E-4,0
CO3D 1,2025-156E,2026-06-26T16:46:24.517632,15.20200673,.0001376,97.4334,256.1538,108.1201,252.0184,0,U,64903,999,5097,.22962E-3,.4906E-4,0
PRSC-S1,2025-164A,2026-06-26T13:05:17.037312,15.06525713,.0005243,41.1296,235.1048,51.3104,308.8179,0,U,65055,999,4984,.26887E-3,.3869E-4,0
SENTINEL-6B,2025-264A,2026-06-26T18:24:50.181408,12.80929974,.0007941,66.0408,115.2810,268.9582,91.0524,0,U,66514,999,2839,-.62063E-4,-.75E-6,0
CAS500-3,2025-274F,2026-06-26T16:40:29.150112,14.88342028,.0006959,97.7444,105.5296,86.1515,274.0497,0,U,66655,999,3156,.13481E-3,.1194E-4,0
CSG-3,2026-001A,2026-06-26T18:51:09.256320,14.82159797,.0001464,97.8888,1.2483,96.2860,263.8520,0,U,67304,999,2588,.43351E-4,.293E-5,0
PRSC-E03,2026-092A,2026-06-26T15:58:19.225920,15.06715601,.000267,38.0020,33.7871,101.0223,259.0839,0,U,68835,999,938,.19922E-3,.2909E-4,0
CAS500-2,2026-100AK,2026-06-26T16:38:59.415072,15.20696287,.0009572,97.3905,75.3780,4.5035,355.6285,0,U,69013,999,825,.29217E-3,.6361E-4,0
