IONOSFERA-M 4           
1 64877U 25155B   26177.78312177  .00000040  00000+0  37672-4 0  9991
2 64877  98.6027 139.3640 0001382 116.0625 244.0695 14.21490332 47760
MICROCARB               
1 64899U 25156A   26177.73163846  .00000493  00000+0  85331-4 0  9995
2 64899  97.9921 254.7043 0015447 235.6589 124.3157 14.72532534 49371
CO3D 3                  
1 64900U 25156B   26177.73193719  .00004056  00000+0  19039-3 0  9990
2 64900  97.4334 256.2875 0001770 118.5521 241.5892 15.20200040 50981
CO3D 4                  
1 64901U 25156C   26177.73208906  .00004138  00000+0  19416-3 0  9996
2 64901  97.4336 256.2876 0000468 186.4432 173.6797 15.20201567 50987
CO3D 2                  
1 64902U 25156D   26177.69874367  .00004748  00000+0  22228-3 0  9994
2 64902  97.4335 256.1536 0001508 100.6482 259.4923 15.20206650 50979
CO3D 1                  
1 64903U 25156E   26177.69889488  .00004906  00000+0  22962-3 0  9996
2 64903  97.4334 256.1538 0001376 108.1201 252.0184 15.20200673 50973
PRSC-S1                 
1 65055U 25164A   26177.54533608  .00003869  00000+0  26887-3 0  9995
2 65055  41.1296 235.1048 0005243  51.3104 308.8179 15.06525713 49843
SENTINEL-6B             
1 66514U 25264A   26177.76724747 -.00000075  00000+0 -62063-4 0  9992
2 66514  66.0408 115.2810 0007941 268.9582  91.0524 12.80929974 28391
CAS500-3                
1 66655U 25274F   26177.69478183  .00001194  00000+0  13481-3 0  9991
2 66655  97.7444 105.5296 0006959  86.1515 274.0497 14.88342028 31566
CSG-3                   
1 67304U 26001A   26177.78552380  .00000293  00000+0  43351-4 0  9993
2 67304  97.8888   1.2483 0001464  96.2860 263.8520 14.82159797 25886
PRSC-E03                
1 68835U 26092A   26177.66550030  .00002909  00000+0  19922-3 0  9992
2 68835  38.0020  33.7871 0002670 101.0223 259.0839 15.06715601  9386
CAS500-2                
1 69013U 26100AK  26177.69374323  .00006361  00000+0  29217-3 0  9997
2 69013  97.3905  75.3780 0009572   4.5035 355.6285 15.20696287  8259
